EUTELSAT QUANTUM        
1 49056U 21069B   25230.54473351  .00000114  00000+0  00000+0 0  9990
2 49056   0.0081 324.8563 0002113 208.6421  37.4563  1.00273971 14885
EUTELSAT KONNECT VHTS   
1 53765U 22110A   25230.39295707  .00000005  00000+0  00000+0 0  9999
2 53765   0.0565 102.9763 0002458  44.9213 323.2525  1.00270474  3790
EUTELSAT HOTBIRD 13F    
1 54048U 22134A   25230.53780014  .00000075  00000+0  00000+0 0  9993
2 54048   0.0586 287.9106 0001862  65.4574 180.3911  1.00272588 10404
EUTELSAT HOTBIRD 13G    
1 54225U 22146A   25230.40669729  .00000075  00000+0  00000+0 0  9998
2 54225   0.0538 243.8671 0002143 304.9109 297.6458  1.00271354  4438
EUTELSAT 10B            
1 54259U 22157A   25230.53710681  .00000056  00000+0  00000+0 0  9994
2 54259   0.0523  99.6888 0001337 349.9764  80.7912  1.00270570  9986
EUTELSAT 36D            
1 59346U 24059A   25230.54230683  .00000143  00000+0  00000+0 0  9996
2 59346   0.0271 110.1747 0000271 104.3432 343.7190  1.00270494  5118
